[{"OBJECT_NAME":"STARLINK-5780","OBJECT_ID":"2023-090BB","EPOCH":"2026-03-29T04:00:01.999584","MEAN_MOTION":15.11075466,"ECCENTRICITY":0.0001227,"INCLINATION":43.0009,"RA_OF_ASC_NODE":154.4716,"ARG_OF_PERICENTER":269.927,"MEAN_ANOMALY":276.6264,"EPHEMERIS_TYPE":0,"CLASSIFICATION_TYPE":"U","NORAD_CAT_ID":57150,"ELEMENT_SET_NO":999,"REV_AT_EPOCH":571,"BSTAR":0.0016963,"MEAN_MOTION_DOT":0.00028782,"MEAN_MOTION_DDOT":0},{"OBJECT_NAME":"STARLINK-5776","OBJECT_ID":"2023-090BC","EPOCH":"2026-03-29T04:00:01.999584","MEAN_MOTION":15.2673162,"ECCENTRICITY":0.0001521,"INCLINATION":43.0012,"RA_OF_ASC_NODE":153.2688,"ARG_OF_PERICENTER":263.6507,"MEAN_ANOMALY":71.5212,"EPHEMERIS_TYPE":0,"CLASSIFICATION_TYPE":"U","NORAD_CAT_ID":57151,"ELEMENT_SET_NO":999,"REV_AT_EPOCH":572,"BSTAR":0.0019706,"MEAN_MOTION_DOT":0.00052966,"MEAN_MOTION_DDOT":0},{"OBJECT_NAME":"STARLINK-6164","OBJECT_ID":"2023-090BD","EPOCH":"2026-03-29T05:26:11.227776","MEAN_MOTION":15.26717024,"ECCENTRICITY":7.04e-5,"INCLINATION":43.0008,"RA_OF_ASC_NODE":152.7989,"ARG_OF_PERICENTER":293.6516,"MEAN_ANOMALY":66.4262,"EPHEMERIS_TYPE":0,"CLASSIFICATION_TYPE":"U","NORAD_CAT_ID":57152,"ELEMENT_SET_NO":999,"REV_AT_EPOCH":15353,"BSTAR":-0.00010159,"MEAN_MOTION_DOT":-2.981e-5,"MEAN_MOTION_DDOT":0},{"OBJECT_NAME":"STARLINK-5879","OBJECT_ID":"2023-090BE","EPOCH":"2026-03-29T04:00:01.999584","MEAN_MOTION":15.21706397,"ECCENTRICITY":0.0001871,"INCLINATION":43.0003,"RA_OF_ASC_NODE":141.7718,"ARG_OF_PERICENTER":280.1322,"MEAN_ANOMALY":131.0808,"EPHEMERIS_TYPE":0,"CLASSIFICATION_TYPE":"U","NORAD_CAT_ID":57153,"ELEMENT_SET_NO":999,"REV_AT_EPOCH":566,"BSTAR":0.051195,"MEAN_MOTION_DOT":0.01297168,"MEAN_MOTION_DDOT":0},{"OBJECT_NAME":"STARLINK-6106","OBJECT_ID":"2023-090BF","EPOCH":"2026-03-29T04:00:01.999584","MEAN_MOTION":15.26746216,"ECCENTRICITY":0.000158,"INCLINATION":43.0013,"RA_OF_ASC_NODE":153.3462,"ARG_OF_PERICENTER":277.2635,"MEAN_ANOMALY":24.8763,"EPHEMERIS_TYPE":0,"CLASSIFICATION_TYPE":"U","NORAD_CAT_ID":57154,"ELEMENT_SET_NO":999,"REV_AT_EPOCH":567,"BSTAR":0.0021095,"MEAN_MOTION_DOT":0.00056774,"MEAN_MOTION_DDOT":0},{"OBJECT_NAME":"STARLINK-6108","OBJECT_ID":"2023-090BG","EPOCH":"2026-03-29T04:00:01.999584","MEAN_MOTION":15.2668583,"ECCENTRICITY":0.0001753,"INCLINATION":43.0007,"RA_OF_ASC_NODE":153.451,"ARG_OF_PERICENTER":285.3776,"MEAN_ANOMALY":330.7981,"EPHEMERIS_TYPE":0,"CLASSIFICATION_TYPE":"U","NORAD_CAT_ID":57155,"ELEMENT_SET_NO":999,"REV_AT_EPOCH":576,"BSTAR":0.003241,"MEAN_MOTION_DOT":0.00087569,"MEAN_MOTION_DDOT":0},{"OBJECT_NAME":"STARLINK-6137","OBJECT_ID":"2023-090BH","EPOCH":"2026-03-29T04:00:01.999584","MEAN_MOTION":15.26695606,"ECCENTRICITY":0.0001544,"INCLINATION":43.0009,"RA_OF_ASC_NODE":153.4841,"ARG_OF_PERICENTER":260.2136,"MEAN_ANOMALY":341.8213,"EPHEMERIS_TYPE":0,"CLASSIFICATION_TYPE":"U","NORAD_CAT_ID":57156,"ELEMENT_SET_NO":999,"REV_AT_EPOCH":576,"BSTAR":0.0026455,"MEAN_MOTION_DOT":0.00071296,"MEAN_MOTION_DDOT":0},{"OBJECT_NAME":"STARLINK-5525","OBJECT_ID":"2023-094A","EPOCH":"2026-03-28T22:31:55.075296","MEAN_MOTION":15.26757172,"ECCENTRICITY":0.0001474,"INCLINATION":43.0023,"RA_OF_ASC_NODE":281.6571,"ARG_OF_PERICENTER":284.5592,"MEAN_ANOMALY":75.5095,"EPHEMERIS_TYPE":0,"CLASSIFICATION_TYPE":"U","NORAD_CAT_ID":57218,"ELEMENT_SET_NO":999,"REV_AT_EPOCH":15006,"BSTAR":0.00012845,"MEAN_MOTION_DOT":3.189e-5,"MEAN_MOTION_DDOT":0},{"OBJECT_NAME":"STARLINK-5520","OBJECT_ID":"2023-094B","EPOCH":"2026-03-29T04:00:01.999584","MEAN_MOTION":15.23599214,"ECCENTRICITY":0.0001789,"INCLINATION":42.9986,"RA_OF_ASC_NODE":283.6435,"ARG_OF_PERICENTER":265.846,"MEAN_ANOMALY":320.6568,"EPHEMERIS_TYPE":0,"CLASSIFICATION_TYPE":"U","NORAD_CAT_ID":57219,"ELEMENT_SET_NO":999,"REV_AT_EPOCH":551,"BSTAR":0.07572,"MEAN_MOTION_DOT":0.02056477,"MEAN_MOTION_DDOT":0},{"OBJECT_NAME":"STARLINK-5880","OBJECT_ID":"2023-094C","EPOCH":"2026-03-29T04:00:01.999584","MEAN_MOTION":15.20430142,"ECCENTRICITY":0.0002243,"INCLINATION":42.9996,"RA_OF_ASC_NODE":283.4278,"ARG_OF_PERICENTER":256.3987,"MEAN_ANOMALY":60.3095,"EPHEMERIS_TYPE":0,"CLASSIFICATION_TYPE":"U","NORAD_CAT_ID":57220,"ELEMENT_SET_NO":999,"REV_AT_EPOCH":561,"BSTAR":0.0024759,"MEAN_MOTION_DOT":0.00055212,"MEAN_MOTION_DDOT":0},{"OBJECT_NAME":"STARLINK-5875","OBJECT_ID":"2023-094D","EPOCH":"2026-03-29T04:00:01.999584","MEAN_MOTION":15.1958078,"ECCENTRICITY":0.0001188,"INCLINATION":42.9987,"RA_OF_ASC_NODE":283.6904,"ARG_OF_PERICENTER":258.2364,"MEAN_ANOMALY":308.7317,"EPHEMERIS_TYPE":0,"CLASSIFICATION_TYPE":"U","NORAD_CAT_ID":57221,"ELEMENT_SET_NO":999,"REV_AT_EPOCH":547,"BSTAR":0.0024558,"MEAN_MOTION_DOT":0.00053402,"MEAN_MOTION_DDOT":0},{"OBJECT_NAME":"STARLINK-5870","OBJECT_ID":"2023-094E","EPOCH":"2026-03-28T21:00:19.316448","MEAN_MOTION":15.26755553,"ECCENTRICITY":0.00017402,"INCLINATION":43.0025,"RA_OF_ASC_NODE":282.0343,"ARG_OF_PERICENTER":270.2921,"MEAN_ANOMALY":89.7731,"EPHEMERIS_TYPE":0,"CLASSIFICATION_TYPE":"U","NORAD_CAT_ID":57222,"ELEMENT_SET_NO":999,"REV_AT_EPOCH":15068,"BSTAR":0.00010077986,"MEAN_MOTION_DOT":2.445e-5,"MEAN_MOTION_DDOT":0},{"OBJECT_NAME":"STARLINK-5519","OBJECT_ID":"2023-094F","EPOCH":"2026-03-29T04:00:01.999584","MEAN_MOTION":15.22030317,"ECCENTRICITY":0.0001632,"INCLINATION":43.002,"RA_OF_ASC_NODE":283.4285,"ARG_OF_PERICENTER":268.2566,"MEAN_ANOMALY":50.3962,"EPHEMERIS_TYPE":0,"CLASSIFICATION_TYPE":"U","NORAD_CAT_ID":57223,"ELEMENT_SET_NO":999,"REV_AT_EPOCH":581,"BSTAR":0.02415,"MEAN_MOTION_DOT":0.00603712,"MEAN_MOTION_DDOT":0},{"OBJECT_NAME":"STARLINK-5983","OBJECT_ID":"2023-094G","EPOCH":"2026-03-28T21:07:56.063136","MEAN_MOTION":15.26748709,"ECCENTRICITY":0.0001347,"INCLINATION":43.0007,"RA_OF_ASC_NODE":282.0713,"ARG_OF_PERICENTER":263.9592,"MEAN_ANOMALY":96.1106,"EPHEMERIS_TYPE":0,"CLASSIFICATION_TYPE":"U","NORAD_CAT_ID":57224,"ELEMENT_SET_NO":999,"REV_AT_EPOCH":15005,"BSTAR":1.0023e-5,"MEAN_MOTION_DOT":9.0e-8,"MEAN_MOTION_DDOT":0},{"OBJECT_NAME":"STARLINK-6294","OBJECT_ID":"2023-094H","EPOCH":"2026-03-28T22:21:56.772576","MEAN_MOTION":15.27170485,"ECCENTRICITY":0.0003404,"INCLINATION":43.0018,"RA_OF_ASC_NODE":282.4477,"ARG_OF_PERICENTER":254.0806,"MEAN_ANOMALY":105.9671,"EPHEMERIS_TYPE":0,"CLASSIFICATION_TYPE":"U","NORAD_CAT_ID":57225,"ELEMENT_SET_NO":999,"REV_AT_EPOCH":15005,"BSTAR":0.0033418,"MEAN_MOTION_DOT":0.00091703,"MEAN_MOTION_DDOT":0},{"OBJECT_NAME":"STARLINK-6350","OBJECT_ID":"2023-094J","EPOCH":"2026-03-28T20:22:20.542368","MEAN_MOTION":15.2675894,"ECCENTRICITY":0.0001707,"INCLINATION":43.0004,"RA_OF_ASC_NODE":282.6828,"ARG_OF_PERICENTER":271.4592,"MEAN_ANOMALY":88.6064,"EPHEMERIS_TYPE":0,"CLASSIFICATION_TYPE":"U","NORAD_CAT_ID":57226,"ELEMENT_SET_NO":999,"REV_AT_EPOCH":15004,"BSTAR":0.00012861,"MEAN_MOTION_DOT":3.193e-5,"MEAN_MOTION_DDOT":0},{"OBJECT_NAME":"STARLINK-5996","OBJECT_ID":"2023-094K","EPOCH":"2026-03-29T04:00:01.999584","MEAN_MOTION":15.20044067,"ECCENTRICITY":0.000186,"INCLINATION":42.9991,"RA_OF_ASC_NODE":283.4885,"ARG_OF_PERICENTER":261.3228,"MEAN_ANOMALY":29.6849,"EPHEMERIS_TYPE":0,"CLASSIFICATION_TYPE":"U","NORAD_CAT_ID":57227,"ELEMENT_SET_NO":999,"REV_AT_EPOCH":581,"BSTAR":0.0026054,"MEAN_MOTION_DOT":0.00057476,"MEAN_MOTION_DDOT":0},{"OBJECT_NAME":"STARLINK-6230","OBJECT_ID":"2023-094L","EPOCH":"2026-03-28T20:46:36.200928","MEAN_MOTION":15.26747255,"ECCENTRICITY":0.0001475,"INCLINATION":43.0025,"RA_OF_ASC_NODE":281.9543,"ARG_OF_PERICENTER":256.9375,"MEAN_ANOMALY":103.1312,"EPHEMERIS_TYPE":0,"CLASSIFICATION_TYPE":"U","NORAD_CAT_ID":57228,"ELEMENT_SET_NO":999,"REV_AT_EPOCH":15005,"BSTAR":2.686e-5,"MEAN_MOTION_DOT":4.61e-6,"MEAN_MOTION_DDOT":0},{"OBJECT_NAME":"STARLINK-6233","OBJECT_ID":"2023-094M","EPOCH":"2026-03-28T21:38:42.266112","MEAN_MOTION":15.26744982,"ECCENTRICITY":0.0001299,"INCLINATION":43.0018,"RA_OF_ASC_NODE":282.2233,"ARG_OF_PERICENTER":269.9993,"MEAN_ANOMALY":90.0709,"EPHEMERIS_TYPE":0,"CLASSIFICATION_TYPE":"U","NORAD_CAT_ID":57229,"ELEMENT_SET_NO":999,"REV_AT_EPOCH":15005,"BSTAR":2.5259e-5,"MEAN_MOTION_DOT":4.18e-6,"MEAN_MOTION_DDOT":0},{"OBJECT_NAME":"STARLINK-6250","OBJECT_ID":"2023-094N","EPOCH":"2026-03-28T21:35:58.861248","MEAN_MOTION":15.26747786,"ECCENTRICITY":7.43e-5,"INCLINATION":43,"RA_OF_ASC_NODE":282.2086,"ARG_OF_PERICENTER":277.424,"MEAN_ANOMALY":82.6527,"EPHEMERIS_TYPE":0,"CLASSIFICATION_TYPE":"U","NORAD_CAT_ID":57230,"ELEMENT_SET_NO":999,"REV_AT_EPOCH":15005,"BSTAR":0.00025733,"MEAN_MOTION_DOT":6.651e-5,"MEAN_MOTION_DDOT":0},{"OBJECT_NAME":"STARLINK-5840","OBJECT_ID":"2023-094P","EPOCH":"2026-03-28T20:13:30.910368","MEAN_MOTION":15.26744877,"ECCENTRICITY":0.00012741,"INCLINATION":42.9994,"RA_OF_ASC_NODE":282.6348,"ARG_OF_PERICENTER":251.2289,"MEAN_ANOMALY":108.8424,"EPHEMERIS_TYPE":0,"CLASSIFICATION_TYPE":"U","NORAD_CAT_ID":57231,"ELEMENT_SET_NO":999,"REV_AT_EPOCH":15004,"BSTAR":0.00029039508,"MEAN_MOTION_DOT":7.539e-5,"MEAN_MOTION_DDOT":0},{"OBJECT_NAME":"STARLINK-5872","OBJECT_ID":"2023-094Q","EPOCH":"2026-03-28T13:57:53.141184","MEAN_MOTION":15.26900585,"ECCENTRICITY":0.0001422,"INCLINATION":43.0001,"RA_OF_ASC_NODE":284.1127,"ARG_OF_PERICENTER":282.0965,"MEAN_ANOMALY":77.9727,"EPHEMERIS_TYPE":0,"CLASSIFICATION_TYPE":"U","NORAD_CAT_ID":57232,"ELEMENT_SET_NO":999,"REV_AT_EPOCH":15066,"BSTAR":0.0012694,"MEAN_MOTION_DOT":0.00034113,"MEAN_MOTION_DDOT":0},{"OBJECT_NAME":"STARLINK-5866","OBJECT_ID":"2023-094R","EPOCH":"2026-03-29T05:05:38.374944","MEAN_MOTION":15.26742612,"ECCENTRICITY":0.000143,"INCLINATION":43.0016,"RA_OF_ASC_NODE":280.2537,"ARG_OF_PERICENTER":267.4224,"MEAN_ANOMALY":92.6464,"EPHEMERIS_TYPE":0,"CLASSIFICATION_TYPE":"U","NORAD_CAT_ID":57233,"ELEMENT_SET_NO":999,"REV_AT_EPOCH":15010,"BSTAR":3.2327e-5,"MEAN_MOTION_DOT":6.07e-6,"MEAN_MOTION_DDOT":0}]
